{
    "links": {
        "self": "http://www.neowsapp.com/rest/v1/neo/3690390?api_key=iIulBulltgU6a56xZRHN4H3l9WmuAYTsLGpBGhQ2"
    },
    "id": "3690390",
    "neo_reference_id": "3690390",
    "name": "(2014 SS223)",
    "designation": "2014 SS223",
    "nasa_jpl_url": "http://ssd.jpl.nasa.gov/sbdb.cgi?sstr=3690390",
    "absolute_magnitude_h": 26.1,
    "estimated_diameter": {
        "kilometers": {
            "estimated_diameter_min": 0.0160160338,
            "estimated_diameter_max": 0.0358129403
        },
        "meters": {
            "estimated_diameter_min": 16.0160337979,
            "estimated_diameter_max": 35.8129403019
        },
        "miles": {
            "estimated_diameter_min": 0.0099518989,
            "estimated_diameter_max": 0.0222531225
        },
        "feet": {
            "estimated_diameter_min": 52.5460443254,
            "estimated_diameter_max": 117.4965270602
        }
    },
    "is_potentially_hazardous_asteroid": false,
    "close_approach_data": [
        {
            "close_approach_date": "2014-05-09",
            "close_approach_date_full": "2014-May-09 08:06",
            "epoch_date_close_approach": 1399622760000,
            "relative_velocity": {
                "kilometers_per_second": "14.0602767614",
                "kilometers_per_hour": "50616.9963409615",
                "miles_per_hour": "31451.4330875269"
            },
            "miss_distance": {
                "astronomical": "0.0961146669",
                "lunar": "37.3886054241",
                "kilometers": "14378549.443999503",
                "miles": "8934416.3301110214"
            },
            "orbiting_body": "Mars"
        },
        {
            "close_approach_date": "2014-09-21",
            "close_approach_date_full": "2014-Sep-21 14:02",
            "epoch_date_close_approach": 1411308120000,
            "relative_velocity": {
                "kilometers_per_second": "14.4989607241",
                "kilometers_per_hour": "52196.2586067046",
                "miles_per_hour": "32432.7252437048"
            },
            "miss_distance": {
                "astronomical": "0.0085662407",
                "lunar": "3.3322676323",
                "kilometers": "1281491.362627309",
                "miles": "796281.8086585042"
            },
            "orbiting_body": "Earth"
        }
    ],
    "orbital_data": {
        "orbit_id": "4",
        "orbit_determination_date": "2017-04-06 08:38:28",
        "first_observation_date": "2014-09-24",
        "last_observation_date": "2014-09-29",
        "data_arc_in_days": 5,
        "observations_used": 26,
        "orbit_uncertainty": "8",
        "minimum_orbit_intersection": ".00313144",
        "jupiter_tisserand_invariant": "3.064",
        "epoch_osculation": "2456927.5",
        "eccentricity": ".6605201723312624",
        "semi_major_axis": "2.586665385689944",
        "inclination": "6.390018781078649",
        "ascending_node_longitude": "175.8963481068253",
        "orbital_period": "1519.528339151511",
        "perihelion_distance": ".8781207193707111",
        "perihelion_argument": "134.8646710703059",
        "aphelion_distance": "4.295210052009177",
        "perihelion_time": "2456888.539198495806",
        "mean_anomaly": "9.230422480532187",
        "mean_motion": ".2369156209360467",
        "equinox": "J2000",
        "orbit_class": {
            "orbit_class_type": "APO",
            "orbit_class_description": "Near-Earth asteroid orbits which cross the Earth’s orbit similar to that of 1862 Apollo",
            "orbit_class_range": "a (semi-major axis) > 1.0 AU; q (perihelion) < 1.017 AU"
        }
    },
    "is_sentry_object": false
}